PERSEUS-M1              
1 40039U 14033AF  26176.80033404  .00001981  00000+0  18355-3 0  9994
2 40039  97.9648 121.0735 0009802 268.9220  91.0877 14.95660102651927
POLYITAN-1              
1 40042U 14033AJ  26176.60092590  .00023755  00000+0  73319-3 0  9991
2 40042  98.0941 203.6586 0008872 118.2869 241.9268 15.33535945654889
TIGRISAT                
1 40043U 14033AK  26176.73963525  .00001816  00000+0  21357-3 0  9990
2 40043  97.7840 326.5556 0050178  47.8040 312.7418 14.85191236646893
AEROCUBE 6A             
1 40045U 14033AM  26176.70634014  .00005160  00000+0  43359-3 0  9999
2 40045  97.7234 343.5661 0038280 348.4826  11.5517 14.98175913647893
AEROCUBE 6B             
1 40046U 14033AN  26176.70037602  .00005469  00000+0  44228-3 0  9998
2 40046  97.7232 343.3693 0037784 339.5695  20.4014 14.99639437648033
CANX-4                  
1 40055U 14034C   26176.59567201  .00000890  00000+0  12133-3 0  9992
2 40055  98.3112  52.2170 0012516 350.4550   9.6421 14.81278652645779
CANX-5                  
1 40056U 14034D   26176.59400729  .00000895  00000+0  12201-3 0  9995
2 40056  98.3115  52.2594 0012520 350.6601   9.4375 14.81295937636587
UKUBE-1                 
1 40074U 14037F   26176.56399135  .00010578  00000+0  59185-3 0  9994
2 40074  98.4236 180.7162 0002994 120.0647 240.0878 15.13673533649823
BRITE-PL2 (HEWELIUSZ)   
1 40119U 14049B   26176.54091931  .00001913  00000+0  18180-3 0  9991
2 40119  97.9105 288.6055 0015424  83.0154 277.2819 14.94624267642697
AEROCUBE 5C             
1 40965U 15058B   26176.48529595  .00001921  00000+0  17759-3 0  9996
2 40965  64.7654 236.7748 0131151  60.0454 301.3604 14.91484743366890
AEROCUBE 7              
1 40966U 15058C   26176.52476384  .00003433  00000+0  27909-3 0  9997
2 40966  64.7609 218.6998 0120888  58.3877 302.8967 14.95769117367200
FOX-1A (AO-85)          
1 40967U 15058D   26176.60265426  .00002302  00000+0  21247-3 0  9993
2 40967  64.7749 252.8304 0130949  53.3196 307.9866 14.91002790114820
SINOD-D 1               
1 40968U 15058E   26176.56856403  .00003279  00000+0  26676-3 0  9995
2 40968  64.7740 232.6646 0119610  49.7671 311.3833 14.95949961117916
SNAP-3 ALICE            
1 40970U 15058G   26176.82241302  .00158199  00000+0  17284-2 0  9999
2 40970  64.7505  74.0406 0025234   6.6672 353.4805 15.62198098118235
LMRST-SAT               
1 40971U 15058H   26176.62719899  .00001826  00000+0  17290-3 0  9991
2 40971  64.7744 249.1084 0132548  55.3391 306.0130 14.90620494114819
SNAP-3 EDDIE            
1 40972U 15058J   26176.86945646  .00149378  00000+0  15564-2 0  9995
2 40972  64.7418  64.5357 0025546   9.8604 350.3039 15.63427584120385
PROPCUBE 3              
1 40973U 15058K   26176.57512552  .00002899  00000+0  24535-3 0  9995
2 40973  64.7673 226.3279 0124487  56.5972 304.6977 14.94295780116057
BISONSAT                
1 40974U 15058L   26176.87116414  .00016735  00000+0  79788-3 0  9990
2 40974  64.7573 145.5636 0080113  43.7475 316.9960 15.16396858116937
SNAP-3 JIMI             
1 40975U 15058M   26176.37700994  .00006176  00000+0  42351-3 0  9992
2 40975  64.7632 193.8587 0106611  52.0629 309.0065 15.02366223115454
PROPCUBE 1 (FLORA)      
1 40976U 15058N   26176.65702872  .00002194  00000+0  21250-3 0  9992
2 40976  64.7749 268.9851 0131207  57.6197 303.7532 14.89254859117527
SINOD-D 3               
1 40977U 15058P   26176.80895984  .00003013  00000+0  25880-3 0  9991
2 40977  64.7720 248.8953 0119753  54.7010 306.5233 14.94060515116046
HORYU-4                 
1 41340U 16012D   26176.85607730  .01047123  58042-3  13388-2 0  9995
2 41340  30.9835  14.9564 0008742 324.3130  35.6949 16.06185976572209
RAVAN                   
1 41849U 16067B   26176.66640647  .00061198  00000+0  89317-3 0  9992
2 41849  97.9880  67.2219 0002862   1.1695 358.9564 15.55471145529011
CELTEE 1                
1 41850U 16067C   26176.56917890  .00006317  00000+0  29894-3 0  9996
2 41850  98.0670  43.7080 0001423 129.0857 231.0503 15.19757723527155
OPTICUBE 04             
1 41851U 16067D   26176.56311766  .00002040  00000+0  13067-3 0  9991
2 41851  98.0695  29.2835 0017027  89.4863 270.8316 15.09692565526437
AEROCUBE 8D             
1 41852U 16067E   26176.62300959  .00009086  00000+0  37255-3 0  9993
2 41852  98.0680  47.4361 0005043 102.8453 257.3346 15.24506857527358
AEROCUBE 8C             
1 41853U 16067F   26176.58098715  .00009645  00000+0  39225-3 0  9993
2 41853  98.0550  44.6077 0006131  46.0158 314.1582 15.24756224527346
CORVUS BC2              
1 42846U 17042X   26176.43203758  .00003195  00000+0  22071-3 0  9994
2 42846  97.4072 337.4619 0014762  85.1086 275.1826 15.06345732488306
CORVUS BC1              
1 42847U 17042Y   26176.69141417  .00002870  00000+0  19795-3 0  9994
2 42847  97.4098 338.5308 0013228  63.4485 296.8097 15.06510053488377
MAKERSAT 0              
1 43016U 17073D   26175.42911744  .00015733  00000+0  42578-3 0  9992
2 43016  97.4622  58.0052 0104847 246.7219 112.2959 15.32301022467578
